HST                     
1 20580U 90037B   22105.59506899  .00002592  00000+0  14346-3 0  9993
2 20580  28.4696 225.2267 0002981  79.8234  25.4150 15.10285361556703
POLAR                   
1 23802U 96013A   22104.87224228  .00000217  00000+0  00000+0 0  9996
2 23802  78.7528 242.2501 5839267 261.0384  32.3032  1.29846843125066
SWAS                    
1 25560U 98071A   22105.53573917  .00001218  00000+0  12088-3 0  9996
2 25560  69.8973 144.6836 0005432  36.7617 323.3911 14.94552594268622
CXO                     
1 25867U 99040B   22107.22679692  .00001018  00000+0  00000+0 0  9993
2 25867  47.0551 239.3883 8747393 231.8584   0.1543  0.37811776 11566
XMM-NEWTON              
1 25989U 99066A   22106.66494330  .00000009  00000+0  00000+0 0  9996
2 25989  70.2412 305.8618 6129891  87.4900 359.8179  0.50134260 15375
TERRA                   
1 25994U 99068A   22105.51670677  .00000312  00000+0  79213-4 0  9991
2 25994  98.1403 178.8690 0001330  98.4121  17.8179 14.57129938187331
CLUSTER II-FM7 (SAMBA)  
1 26410U 00041A   22107.82697139  .00000310  00000+0  00000+0 0  9997
2 26410 133.8818 347.1793 5506898 198.2101   0.8287  0.44227029 13542
CLUSTER II-FM6 (SALSA)  
1 26411U 00041B   22107.79775007  .00000229  00000+0  00000+0 0  9994
2 26411 135.7830 350.3011 7137153 202.8283   0.8867  0.44222444 13580
CLUSTER II-FM5 (RUMBA)  
1 26463U 00045A   22107.80186007  .00000328  00000+0  00000+0 0  9993
2 26463 139.3578 350.5583 6657097 203.5640   0.8931  0.44222149 13472
CLUSTER II-FM8 (TANGO)  
1 26464U 00045B   22107.80583559  .00000310  00000+0  00000+0 0  9998
2 26464 133.8724 347.1696 5507703 198.2055   0.8231  0.44218458 13559
ODIN                    
1 26702U 01007A   22105.55650467  .00002753  00000+0  17557-3 0  9997
2 26702  97.5246 121.4556 0011851 139.2032 221.0086 15.09476235156780
TIMED                   
1 26998U 01055B   22105.54081868  .00000834  00000+0  93604-4 0  9995
2 26998  74.0740  44.9687 0002330 275.5140  84.5775 14.88558248103641
RHESSI                  
1 27370U 02004A   22105.27756719  .00025934  00000+0  61744-3 0  9996
2 27370  38.0336  35.9696 0006888  20.6579 339.4473 15.40823350116856
INTEGRAL                
1 27540U 02048A   22105.44434583  .00000247  00000+0  00000+0 0  9998
2 27540  73.4545  63.3703 8927127 299.1728 261.5847  0.37586582 20913
CORIOLIS                
1 27640U 03001A   22105.57378983  .00000072  00000+0  55501-4 0  9991
2 27640  98.7202 115.5618 0013055 279.3938 189.6184 14.19116466998058
SORCE                   
1 27651U 03004A   22105.58859835  .00001222  00000+0  13897-3 0  9996
2 27651  39.9946 208.4602 0022806  28.3213 331.8811 14.89725371 43696
MOST                    
1 27843U 03031D   22105.53180152  .00000058  00000+0  47339-4 0  9998
2 27843  98.7100 114.0564 0009461 335.7409  24.3322 14.20672820974315
SCISAT 1                
1 27858U 03036A   22105.54170329  .00000444  00000+0  67225-4 0  9990
2 27858  73.9320 308.2991 0007903 352.8175   7.2884 14.77494397  6143
SWIFT                   
1 28485U 04047A   22105.43910279  .00003846  00000+0  22621-3 0  9993
2 28485  20.5580  32.6182 0010602 219.2018 140.7648 15.05962467954039
CLOUDSAT                
1 29107U 06016A   22105.47837847  .00000513  00000+0  10978-3 0  9996
2 29107  98.3223  65.0648 0004190 126.6171 233.5416 14.62919844849828
CALIPSO                 
1 29108U 06016B   22105.47477353  .00000826  00000+0  17128-3 0  9990
2 29108  98.3194  64.6554 0001320  84.5387 275.5964 14.62819453849818
HINODE (SOLAR-B)        
1 29479U 06041A   22105.52819645  .00000499  00000+0  10242-3 0  9995
2 29479  98.1255 121.4817 0019826  66.1935 294.1344 14.64745815831546
SJ-6C                   
1 29505U 06046A   22105.48394594  .00003148  00000+0  28732-3 0  9993
2 29505  97.7829 126.9153 0003965 355.5953   4.5230 14.95794831843280
SJ-6D                   
1 29506U 06046B   22105.58682309  .00001113  00000+0  11009-3 0  9998
2 29506  97.8017 127.2042 0003476  78.1164 282.0457 14.93899632842759
AGILE                   
1 31135U 07013A   22105.34802846  .00012146  00000+0  29503-3 0  9994
2 31135   2.4686   9.2763 0010416 183.2351 176.7636 15.36511596467222
AIM                     
1 31304U 07015A   22105.34425622  .00008086  00000+0  41743-3 0  9995
2 31304  97.8574  22.2414 0003591 215.3248 144.7746 15.16594811821624
FGRST (GLAST)           
1 33053U 08029A   22105.54338081  .00001961  00000+0  94204-4 0  9994
2 33053  25.5818 236.0920 0012147 169.0447 191.0354 15.11987448764168
WISE                    
1 36119U 09071A   22105.54343235  .00006686  00000+0  21400-3 0  9991
2 36119  97.2472 141.2339 0003487 137.3113 222.8401 15.32717731685866
SDO                     
1 36395U 10005A   22105.53171365 -.00000028  00000+0  00000+0 0  9992
2 36395  31.5322 110.2359 0001928 261.1817 281.8429  1.00273623 44759
CRYOSAT 2               
1 36508U 10013A   22105.53711843  .00000243  00000+0  59620-4 0  9993
2 36508  92.0263 268.8142 0007955  98.8767 261.3341 14.51899505637045
X-SAT                   
1 37389U 11015C   22105.56949915  .00000070  00000+0  47964-4 0  9996
2 37389  98.3426 142.0069 0015060 132.9597 227.2851 14.24413524571251
GCOM-W1 (SHIZUKU)       
1 38337U 12025A   22105.47234583  .00000409  00000+0  10086-3 0  9990
2 38337  98.1983  46.9333 0002024  74.2831  42.4001 14.57138626527137
NUSTAR                  
1 38358U 12031A   22105.36682588  .00002658  00000+0  20074-3 0  9996
2 38358   6.0262 102.6800 0011195 151.3802 208.6942 14.89094164535436
NEOSSAT                 
1 39089U 13009D   22105.55010508  .00000149  00000+0  67701-4 0  9994
2 39089  98.4268 303.4172 0012495 103.4850 256.7729 14.34639261478196
BRITE-AUSTRIA           
1 39091U 13009F   22105.54145555  .00000162  00000+0  71451-4 0  9999
2 39091  98.4105 304.4657 0011664 104.1471 256.1012 14.35249692478401
IRIS                    
1 39197U 13033A   22105.53771138  .00000735  00000+0  10581-3 0  9996
2 39197  97.9703 291.9431 0026437 230.7796 129.1068 14.79123293474677
HISAKI (SPRINT-A)       
1 39253U 13049A   22105.54472591  .00000159  00000+0  12490-3 0  9999
2 39253  29.7218  44.4366 0137090 267.2107  91.2767 13.55270995424564
CASSIOPE                
1 39265U 13055A   22105.53927908  .00016922  00000+0  45443-3 0  9994
2 39265  80.9660 333.9878 0630066 144.4434 220.0499 14.36995164443298
STSAT-3                 
1 39422U 13066G   22105.57941982  .00001607  00000+0  16997-3 0  9999
2 39422  97.4715 114.1197 0024122 129.2281 231.1108 14.90298468456478
SWARM B                 
1 39451U 13067A   22105.48404865  .00002380  00000+0  10846-3 0  9992
2 39451  87.7466  80.1476 0003086  95.4612 264.6985 15.20176004451367
SWARM A                 
1 39452U 13067B   22105.48414616  .00009432  00000+0  17977-3 0  9995
2 39452  87.3587 247.4278 0001757  88.8484 271.2977 15.48010724472210
SWARM C                 
1 39453U 13067C   22105.48403350  .00009435  00000+0  17983-3 0  9999
2 39453  87.3441 247.0274 0001752  89.0065 271.1395 15.48010194472174
BRITE-CA1 (TORONTO)     
1 40020U 14033L   22105.39400683  .00000778  00000+0  13933-3 0  9993
2 40020  97.7705 267.5926 0088353 104.4720 256.6309 14.66953736418414
OCO 2                   
1 40059U 14035A   22105.51538431  .00000354  00000+0  88529-4 0  9998
2 40059  98.1976  47.7130 0001255  87.4549 272.6793 14.57136677414161
BRITE-PL2 (HEWELIUSZ)   
1 40119U 14049B   22105.47953966  .00001077  00000+0  13232-3 0  9990
2 40119  97.8801 201.7724 0018674  88.9165 271.4189 14.84972027414663
RESURS P2               
1 40360U 14087A   22105.51644676  .00005708  00000+0  16558-3 0  9999
2 40360  97.2067 191.7071 0008096 324.4578 219.8626 15.35883861408596
MMS 1                   
1 40482U 15011A   22104.12500000 -.00000344  00000+0  00000+0 0  9993
2 40482  32.6896 107.8316 8598989  48.4788 357.7694  0.28432478 13110
MMS 2                   
1 40483U 15011B   22104.12500000 -.00000344  00000+0  00000+0 0  9994
2 40483  32.6881 107.8379 8600234  48.4726 357.7725  0.28432490 13099
MMS 3                   
1 40484U 15011C   22104.12500000 -.00000344  00000+0  00000+0 0  9995
2 40484  32.6816 107.8451 8599250  48.4643 357.7810  0.28421329 13096
MMS 4                   
1 40485U 15011D   22096.08333333 -.00001192  00000+0  00000+0 0  9996
2 40485  32.7517 108.0973 8593439  48.1308 254.8168  0.28438220 13042
ASTROSAT                
1 40930U 15052A   22105.04836931  .00001341  00000+0  98626-4 0  9996
2 40930   5.9971 270.4125 0009049 335.5072  24.4625 14.76549100353761
DAMPE                   
1 41173U 15078A   22105.53292689  .00001068  00000+0  46503-4 0  9997
2 41173  97.3743  97.2779 0015272  64.6807  87.9157 15.24305843351999
PISAT                   
1 41784U 16059B   22105.39218488  .00000582  00000+0  11965-3 0  9997
2 41784  97.9234 151.1772 0031951  11.5845 348.6086 14.63821038296465
HXMT (HUIYAN)           
1 42758U 17034A   22105.64057610  .00003318  00000+0  21349-3 0  9996
2 42758  43.0188 333.6909 0009777 251.2341 138.0788 15.10056697266686
FLYING LAPTOP           
1 42831U 17042G   22105.60970096  .00000818  00000+0  86513-4 0  9992
2 42831  97.4318 323.6995 0012997 212.9478 147.0964 14.91632321258727
PICSAT                  
1 43132U 18004X   22105.46788621  .00015260  00000+0  53551-3 0  9993
2 43132  97.3756 182.2669 0007717 212.2891 147.7878 15.29486830236776
ZHANGZHENG-1 (CSES)     
1 43194U 18015C   22105.61990566  .00009373  00000+0  42890-3 0  9995
2 43194  97.5121 236.5009 0008424 339.4433  31.7207 15.20707383233071
ICON                    
1 44628U 19068A   22105.38764345  .00002413  00000+0  20940-3 0  9995
2 44628  26.9906   0.7291 0018716  20.6355 339.4956 14.92552010137134
SALSAT                  
1 46495U 20068K   22105.37263684  .00002718  00000+0  19974-3 0  9993
2 46495  97.7260  46.6891 0018005 127.7673 232.5187 15.04165340 84708
IXPE                    
1 49954U 21121A   22105.57044833  .00002740  00000+0  19411-3 0  9993
2 49954   0.2295 123.9059 0011242  91.2899 144.7296 14.91108149 19021
